FORMOSAT 7-3            
1 44343U 19036E   26161.50875080  .00003771  00000+0  20677-3 0  9998
2 44343  23.9984 224.5078 0000798 159.2111 200.8425 15.09757450382239
FORMOSAT 7-1            
1 44349U 19036L   26161.44579692  .00002374  00000+0  17804-3 0  9993
2 44349  23.9983  77.8387 0001015  98.3037 261.7579 14.96476311383640
FORMOSAT 7-4            
1 44350U 19036M   26161.26820448  .00002289  00000+0  17082-3 0  9996
2 44350  23.9969 141.1439 0001503 107.9949 252.0716 14.96469795383037
FORMOSAT 7-2            
1 44351U 19036N   26161.42391094  .00002110  00000+0  15537-3 0  9991
2 44351  23.9971 194.4123 0001031 103.9782 256.0833 14.96472857382574
FORMOSAT 7-6            
1 44353U 19036Q   26161.29036600  .00002470  00000+0  18633-3 0  9996
2 44353  23.9993  16.1242 0001231  31.1462 328.9111 14.96480938380789
FORMOSAT 7-5            
1 44358U 19036V   26161.13429855  .00002522  00000+0  19075-3 0  9991
2 44358  23.9998 315.9292 0000707  84.9311 275.1271 14.96487990381292
METEOR-M2 2             
1 44387U 19038A   26161.50103708  .00000388  00000+0  18773-3 0  9994
2 44387  98.9145 148.6878 0002246  57.9018 302.2378 14.24365475360342
GLOBAL-4                
1 44499U 19054E   26161.05245507  .00050527  00000+0  52826-3 0  9997
2 44499  45.0065 277.5496 0006476 295.4744  64.5482 15.63721370379249
ZY-1 02D                
1 44528U 19059A   26161.51710902  .00000227  00000+0  93603-4 0  9993
2 44528  98.3190 223.2382 0002272 116.5715 243.5704 14.35458210353386
TAURUS-1 (JINNIUZUO 1)  
1 44530U 19059C   26161.51353183  .00005197  00000+0  83565-3 0  9996
2 44530  98.6414 325.9285 0007686 339.8218  20.2682 14.72027165357667
ZHUHAI-1 03B            
1 44536U 19060C   26161.48616589  .00027195  00000+0  42525-3 0  9995
2 44536  97.5518 318.8923 0007795 345.4423  14.6604 15.53718431375280
ZHUHAI-1 03D            
1 44538U 19060E   26161.50782671  .00027276  00000+0  49786-3 0  9992
2 44538  97.5380 311.0952 0006820 328.5711  31.5132 15.49373342375047
ZHUHAI-1 03E            
1 44539U 19060F   26161.49014109  .00016010  00000+0  39175-3 0  9990
2 44539  97.5600 311.2071 0006454  55.6279 304.5577 15.40850123374736
GAOFEN-7                
1 44703U 19072A   26161.49085263  .00003426  00000+0  15442-3 0  9993
2 44703  97.2434 223.2090 0017881  62.6639 297.6415 15.21550497366620
JILIN-1 GAOFEN 2A       
1 44777U 19075A   26161.50410488  .00012108  00000+0  31398-3 0  9995
2 44777  97.4964 245.1387 0007641 106.9496 253.2587 15.39134543363858
NINGXIA-1 1             
1 44779U 19076A   26161.48334425 -.00000093  00000+0  23952-4 0  9990
2 44779  45.0039 209.8110 0010276 130.3130 229.8603 14.02037543336913
NINGXIA-1 5             
1 44783U 19076E   26161.49686485 -.00000018  00000+0  72741-4 0  9999
2 44783  45.0040 209.0946 0009839 119.1732 241.0087 14.02085974336839
KL-ALPHA A              
1 44785U 19077A   26161.55308462 -.00000047  00000+0 -85336-4 0  9992
2 44785  88.9255 223.2898 0012954 122.3481 237.8929 13.56042278324831
CARTOSAT-3              
1 44804U 19081A   26161.50510113  .00005350  00000+0  25665-3 0  9990
2 44804  97.4312 223.4794 0012565 170.5567 189.5906 15.19238140362451
JILIN-1 GAOFEN 2B       
1 44836U 19086A   26161.50119394  .00005034  00000+0  23210-3 0  9999
2 44836  97.4884 233.5341 0013435 349.2776  10.8171 15.20636918359479
TIANQIN 1 (CAS-6)       
1 44879U 19093A   26161.46493606  .00002876  00000+0  26520-3 0  9998
2 44879  97.7810 245.3539 0012865  77.9675 282.2986 14.95409807351047
ETRSS-1                 
1 44880U 19093B   26161.47367850  .00003210  00000+0  29221-3 0  9996
2 44880  97.7825 245.8164 0012865  77.8700 282.3961 14.95834688351056
TIANYAN 01              
1 44881U 19093C   26161.51540289  .00000769  00000+0  92842-4 0  9997
2 44881  97.7530 233.9102 0014983 106.4355 253.8508 14.86510103350421
TIANYAN 02              
1 44882U 19093D   26161.53816603  .00006201  00000+0  43870-3 0  9999
2 44882  97.7933 256.2645 0014453  50.2156 310.0340 15.05147060351618
CBERS 4A                
1 44883U 19093E   26160.45807868  .00000472  00000+0  66441-4 0  9997
2 44883  97.7494 227.9407 0001454 151.3784 208.7510 14.81624316349930
WEILAI 1R               
1 44884U 19093F   26161.51988971  .00004918  00000+0  39294-3 0  9995
2 44884  97.7844 251.3964 0017929  56.2134 304.0794 15.00588805351420
FLORIPASAT-1            
1 44885U 19093G   26161.50513770  .00005466  00000+0  40138-3 0  9994
2 44885  97.7914 255.6884 0013476  92.6545 267.6223 15.03809685351640
SHUNTIAN                
1 44886U 19093H   26161.51561579  .00002424  00000+0  22600-3 0  9991
2 44886  97.7998 249.7100 0013100  88.5030 271.7691 14.95124120351183
