OBJECT_NAME,OBJECT_ID,EPOCH,MEAN_MOTION,ECCENTRICITY,INCLINATION,RA_OF_ASC_NODE,ARG_OF_PERICENTER,MEAN_ANOMALY,EPHEMERIS_TYPE,CLASSIFICATION_TYPE,NORAD_CAT_ID,ELEMENT_SET_NO,REV_AT_EPOCH,BSTAR,MEAN_MOTION_DOT,MEAN_MOTION_DDOT
FORMOSAT 7-3,2019-036E,2026-06-10T12:12:36.069120,15.09757450,.0000798,23.9984,224.5078,159.2111,200.8425,0,U,44343,999,38223,.20677E-3,.3771E-4,0
FORMOSAT 7-1,2019-036L,2026-06-10T10:41:56.853888,14.96476311,.0001015,23.9983,77.8387,98.3037,261.7579,0,U,44349,999,38364,.17804E-3,.2374E-4,0
FORMOSAT 7-4,2019-036M,2026-06-10T06:26:12.867072,14.96469795,.0001503,23.9969,141.1439,107.9949,252.0716,0,U,44350,999,38303,.17082E-3,.2289E-4,0
FORMOSAT 7-2,2019-036N,2026-06-10T10:10:25.905216,14.96472857,.0001031,23.9971,194.4123,103.9782,256.0833,0,U,44351,999,38257,.15537E-3,.211E-4,0
FORMOSAT 7-6,2019-036Q,2026-06-10T06:58:07.622400,14.96480938,.0001231,23.9993,16.1242,31.1462,328.9111,0,U,44353,999,38078,.18633E-3,.247E-4,0
FORMOSAT 7-5,2019-036V,2026-06-10T03:13:23.394720,14.96487990,.00007071,23.9998,315.9292,84.9311,275.1271,0,U,44358,999,38129,.19074956E-3,.2522E-4,0
METEOR-M2 2,2019-038A,2026-06-10T12:01:29.603712,14.24365475,.0002246,98.9145,148.6878,57.9018,302.2378,0,U,44387,999,36034,.18773E-3,.388E-5,0
GLOBAL-4,2019-054E,2026-06-10T01:15:32.118048,15.63721370,.00064761,45.0065,277.5496,295.4744,64.5482,0,U,44499,999,37924,.52825739E-3,.50527E-3,0
ZY-1 02D,2019-059A,2026-06-10T12:24:38.219328,14.35458210,.0002272,98.3190,223.2382,116.5715,243.5704,0,U,44528,999,35338,.93603E-4,.227E-5,0
TAURUS-1 (JINNIUZUO 1),2019-059C,2026-06-10T12:19:29.150112,14.72027165,.0007686,98.6414,325.9285,339.8218,20.2682,0,U,44530,999,35766,.83565E-3,.5197E-4,0
ZHUHAI-1 03B,2019-060C,2026-06-10T11:40:04.732896,15.53718431,.0007795,97.5518,318.8923,345.4423,14.6604,0,U,44536,999,37528,.42525E-3,.27195E-3,0
ZHUHAI-1 03D,2019-060E,2026-06-10T12:11:16.227744,15.49373342,.000682,97.5380,311.0952,328.5711,31.5132,0,U,44538,999,37504,.49786E-3,.27276E-3,0
ZHUHAI-1 03E,2019-060F,2026-06-10T11:45:48.190176,15.40850123,.0006454,97.5600,311.2071,55.6279,304.5577,0,U,44539,999,37473,.39175E-3,.1601E-3,0
GAOFEN-7,2019-072A,2026-06-10T11:46:49.667232,15.21550497,.0017881,97.2434,223.2090,62.6639,297.6415,0,U,44703,999,36662,.15442E-3,.3426E-4,0
JILIN-1 GAOFEN 2A,2019-075A,2026-06-10T12:05:54.661632,15.39134543,.0007641,97.4964,245.1387,106.9496,253.2587,0,U,44777,999,36385,.31398E-3,.12108E-3,0
NINGXIA-1 1,2019-076A,2026-06-10T11:36:00.943200,14.02037543,.0010276,45.0039,209.8110,130.3130,229.8603,0,U,44779,999,33691,.23952E-4,-.93E-6,0
NINGXIA-1 5,2019-076E,2026-06-10T11:55:29.123040,14.02085974,.0009839,45.0040,209.0946,119.1732,241.0087,0,U,44783,999,33683,.72741E-4,-.18E-6,0
KL-ALPHA A,2019-077A,2026-06-10T13:16:26.511168,13.56042278,.0012954,88.9255,223.2898,122.3481,237.8929,0,U,44785,999,32483,-.85336E-4,-.47E-6,0
CARTOSAT-3,2019-081A,2026-06-10T12:07:20.737632,15.19238140,.0012565,97.4312,223.4794,170.5567,189.5906,0,U,44804,999,36245,.25665E-3,.535E-4,0
JILIN-1 GAOFEN 2B,2019-086A,2026-06-10T12:01:43.156416,15.20636918,.0013435,97.4884,233.5341,349.2776,10.8171,0,U,44836,999,35947,.2321E-3,.5034E-4,0
TIANQIN 1 (CAS-6),2019-093A,2026-06-10T11:09:30.475584,14.95409807,.0012865,97.7810,245.3539,77.9675,282.2986,0,U,44879,999,35104,.2652E-3,.2876E-4,0
ETRSS-1,2019-093B,2026-06-10T11:22:05.822400,14.95834688,.0012865,97.7825,245.8164,77.8700,282.3961,0,U,44880,999,35105,.29221E-3,.321E-4,0
TIANYAN 01,2019-093C,2026-06-10T12:22:10.809696,14.86510103,.0014983,97.7530,233.9102,106.4355,253.8508,0,U,44881,999,35042,.92842E-4,.769E-5,0
TIANYAN 02,2019-093D,2026-06-10T12:54:57.544992,15.05147060,.0014453,97.7933,256.2645,50.2156,310.0340,0,U,44882,999,35161,.4387E-3,.6201E-4,0
CBERS 4A,2019-093E,2026-06-09T10:59:37.997952,14.81624316,.00014541,97.7494,227.9407,151.3784,208.7510,0,U,44883,999,34993,.66441037E-4,.472E-5,0
WEILAI 1R,2019-093F,2026-06-10T12:28:38.470944,15.00588805,.0017929,97.7844,251.3964,56.2134,304.0794,0,U,44884,999,35142,.39294E-3,.4918E-4,0
FLORIPASAT-1,2019-093G,2026-06-10T12:07:23.897280,15.03809685,.0013476,97.7914,255.6884,92.6545,267.6223,0,U,44885,999,35164,.40138E-3,.5466E-4,0
SHUNTIAN,2019-093H,2026-06-10T12:22:29.204256,14.95124120,.00131,97.7998,249.7100,88.5030,271.7691,0,U,44886,999,35118,.226E-3,.2424E-4,0
